0 TAURUS DEB
1 26035U 99070D   13281.53406255  .00000276  00000-0  65609-4 0  1342
2 26035 097.8162 099.7569 0025839 286.7131 104.7774 14.60662882735177
0 TAURUS DEB
1 26035U 99070D   13283.66259694  .00000303  00000-0  70953-4 0  1351
2 26035 097.8159 101.7667 0025842 279.6563 137.7844 14.60665826735490
0 TAURUS DEB
1 26035U 99070D   13286.14351994  .00000295  00000-0  69398-4 0  1365
2 26035 097.8158 104.1091 0025866 271.3423 223.9540 14.60667452735855
0 TAURUS DEB
1 26035U 99070D   13288.52660933  .00000502  00000-0  11160-3 0  1370
2 26035 097.8159 106.3591 0025928 263.6295 155.3990 14.60669972736201
0 TAURUS DEB
1 26035U 99070D   13290.71836733  .00000421  00000-0  95040-4 0  1388
2 26035 097.8161 108.4285 0025993 256.2555 161.0318 14.60672156736527
0 TAURUS DEB
1 26035U 99070D   13293.13109524  .00000456  00000-0  10231-3 0  1395
2 26035 097.8162 110.7065 0026099 248.2581 248.5611 14.60673894736873
0 TAURUS DEB
1 26035U 99070D   13295.18183160  .00000505  00000-0  11226-3 0  1402
2 26035 097.8162 112.6429 0026174 241.6668 232.3365 14.60676185737172
